{
  "type": "FeatureCollection",
  "features": [
    {
      "type": "Feature",
      "properties": {
        "norad_id": 33710,
        "name": "FENGYUN 1C DEB",
        "group": "fengyun-1c-debris",
        "lat": -17.41042172842151,
        "lon": 98.67790931742623,
        "alt_km": 887.6897033169926,
        "timestamp": "2025-12-22T23:36:21.000662+00:00",
        "meta_object_name": "FENGYUN 1C DEB",
        "meta_object_id": "1999-025DGX",
        "meta_epoch": "2025-12-21T00:03:36.214272",
        "meta_mean_motion": 14.11669685,
        "meta_eccentricity": 0.0055755,
        "meta_inclination": 98.9796,
        "meta_ra_of_asc_node": 93.8537,
        "meta_arg_of_pericenter": 124.643,
        "meta_mean_anomaly": 236.0015,
        "meta_ephemeris_type": 0,
        "meta_classification_type": "U",
        "meta_norad_cat_id": 33710,
        "meta_element_set_no": 999,
        "meta_rev_at_epoch": 67773,
        "meta_bstar": 0.00081859653,
        "meta_mean_motion_dot": 1.467e-05,
        "meta_mean_motion_ddot": 0,
        "tle_line1": "1 33710U 99025DGX 25355.00250248  .00001467  00000+0  81860-3 0  9993",
        "tle_line2": "2 33710  98.9796  93.8537 0055755 124.6430 236.0015 14.11669685677730"
      },
      "geometry": {
        "type": "Point",
        "coordinates": [
          98.67790931742623,
          -17.41042172842151
        ]
      }
    },
    {
      "type": "Feature",
      "properties": {
        "norad_id": 33711,
        "name": "FENGYUN 1C DEB",
        "group": "fengyun-1c-debris",
        "lat": 79.00754979071705,
        "lon": -73.12054771643834,
        "alt_km": 865.9528965572954,
        "timestamp": "2025-12-22T23:36:21.000672+00:00",
        "meta_object_name": "FENGYUN 1C DEB",
        "meta_object_id": "1999-025DGY",
        "meta_epoch": "2025-12-22T02:43:29.083584",
        "meta_mean_motion": 14.00930368,
        "meta_eccentricity": 0.00957142,
        "meta_inclination": 99.1815,
        "meta_ra_of_asc_node": 49.6345,
        "meta_arg_of_pericenter": 22.2501,
        "meta_mean_anomaly": 7.1873,
        "meta_ephemeris_type": 0,
        "meta_classification_type": "U",
        "meta_norad_cat_id": 33711,
        "meta_element_set_no": 999,
        "meta_rev_at_epoch": 92063,
        "meta_bstar": 0.00042071153,
        "meta_mean_motion_dot": 6.1e-06,
        "meta_mean_motion_ddot": 0,
        "tle_line1": "1 33711U 99025DGY 25356.11353106  .00000610  00000+0  42071-3 0  9994",
        "tle_line2": "2 33711  99.1815  49.6345 0095714  22.2501   7.1873 14.00930368920639"
      },
      "geometry": {
        "type": "Point",
        "coordinates": [
          -73.12054771643834,
          79.00754979071705
        ]
      }
    },
    {
      "type": "Feature",
      "properties": {
        "norad_id": 33716,
        "name": "FENGYUN 1C DEB",
        "group": "fengyun-1c-debris",
        "lat": 54.50546889134105,
        "lon": 115.4651200554331,
        "alt_km": 838.7276531335774,
        "timestamp": "2025-12-22T23:36:21.000681+00:00",
        "meta_object_name": "FENGYUN 1C DEB",
        "meta_object_id": "1999-025DHD",
        "meta_epoch": "2025-12-20T00:37:45.434784",
        "meta_mean_motion": 14.32676609,
        "meta_eccentricity": 0.00932596,
        "meta_inclination": 98.8749,
        "meta_ra_of_asc_node": 279.7817,
        "meta_arg_of_pericenter": 336.6348,
        "meta_mean_anomaly": 23.061,
        "meta_ephemeris_type": 0,
        "meta_classification_type": "U",
        "meta_norad_cat_id": 33716,
        "meta_element_set_no": 999,
        "meta_rev_at_epoch": 65262,
        "meta_bstar": 0.00013018796,
        "meta_mean_motion_dot": 3.24e-06,
        "meta_mean_motion_ddot": 0,
        "tle_line1": "1 33716U 99025DHD 25354.02622031  .00000324  00000+0  13019-3 0  9995",
        "tle_line2": "2 33716  98.8749 279.7817 0093259 336.6348  23.0610 14.32676609652626"
      },
      "geometry": {
        "type": "Point",
        "coordinates": [
          115.4651200554331,
          54.50546889134105
        ]
      }
    },
    {
      "type": "Feature",
      "properties": {
        "norad_id": 33718,
        "name": "FENGYUN 1C DEB",
        "group": "fengyun-1c-debris",
        "lat": 33.132986911804316,
        "lon": 77.918656537676,
        "alt_km": 878.1076802424031,
        "timestamp": "2025-12-22T23:36:21.000693+00:00",
        "meta_object_name": "FENGYUN 1C DEB",
        "meta_object_id": "1999-025DHF",
        "meta_epoch": "2025-12-19T23:49:22.963296",
        "meta_mean_motion": 14.08105706,
        "meta_eccentricity": 0.00982331,
        "meta_inclination": 99.6592,
        "meta_ra_of_asc_node": 81.1024,
        "meta_arg_of_pericenter": 299.7261,
        "meta_mean_anomaly": 59.4158,
        "meta_ephemeris_type": 0,
        "meta_classification_type": "U",
        "meta_norad_cat_id": 33718,
        "meta_element_set_no": 999,
        "meta_rev_at_epoch": 69288,
        "meta_bstar": 0.0010316732,
        "meta_mean_motion_dot": 1.786e-05,
        "meta_mean_motion_ddot": 0,
        "tle_line1": "1 33718U 99025DHF 25353.99262689  .00001786  00000+0  10317-2 0  9991",
        "tle_line2": "2 33718  99.6592  81.1024 0098233 299.7261  59.4158 14.08105706692888"
      },
      "geometry": {
        "type": "Point",
        "coordinates": [
          77.918656537676,
          33.132986911804316
        ]
      }
    },
    {
      "type": "Feature",
      "properties": {
        "norad_id": 33719,
        "name": "FENGYUN 1C DEB",
        "group": "fengyun-1c-debris",
        "lat": 66.79435231254064,
        "lon": -101.96400605508377,
        "alt_km": 796.1755238021979,
        "timestamp": "2025-12-22T23:36:21.000703+00:00",
        "meta_object_name": "FENGYUN 1C DEB",
        "meta_object_id": "1999-025DHG",
        "meta_epoch": "2025-12-19T10:48:35.647776",
        "meta_mean_motion": 14.23499746,
        "meta_eccentricity": 0.0030347,
        "meta_inclination": 98.7733,
        "meta_ra_of_asc_node": 53.4005,
        "meta_arg_of_pericenter": 61.2166,
        "meta_mean_anomaly": 314.1139,
        "meta_ephemeris_type": 0,
        "meta_classification_type": "U",
        "meta_norad_cat_id": 33719,
        "meta_element_set_no": 999,
        "meta_rev_at_epoch": 92109,
        "meta_bstar": 0.00061462,
        "meta_mean_motion_dot": 1.36e-05,
        "meta_mean_motion_ddot": 0,
        "tle_line1": "1 33719U 99025DHG 25353.45041259  .00001360  00000+0  61462-3 0  9997",
        "tle_line2": "2 33719  98.7733  53.4005 0030347  61.2166 314.1139 14.23499746921090"
      },
      "geometry": {
        "type": "Point",
        "coordinates": [
          -101.96400605508377,
          66.79435231254064
        ]
      }
    },
    {
      "type": "Feature",
      "properties": {
        "norad_id": 33722,
        "name": "FENGYUN 1C DEB",
        "group": "fengyun-1c-debris",
        "lat": -65.28750795517841,
        "lon": 30.183806388676757,
        "alt_km": 789.8643141798211,
        "timestamp": "2025-12-22T23:36:21.000713+00:00",
        "meta_object_name": "FENGYUN 1C DEB",
        "meta_object_id": "1999-025DHK",
        "meta_epoch": "2025-12-21T07:22:27.409152",
        "meta_mean_motion": 14.21382482,
        "meta_eccentricity": 0.0158453,
        "meta_inclination": 98.5735,
        "meta_ra_of_asc_node": 9.4199,
        "meta_arg_of_pericenter": 226.7726,
        "meta_mean_anomaly": 132.0132,
        "meta_ephemeris_type": 0,
        "meta_classification_type": "U",
        "meta_norad_cat_id": 33722,
        "meta_element_set_no": 999,
        "meta_rev_at_epoch": 92269,
        "meta_bstar": 0.00048206,
        "meta_mean_motion_dot": 1.151e-05,
        "meta_mean_motion_ddot": 0,
        "tle_line1": "1 33722U 99025DHK 25355.30726168  .00001151  00000+0  48206-3 0  9995",
        "tle_line2": "2 33722  98.5735   9.4199 0158453 226.7726 132.0132 14.21382482922691"
      },
      "geometry": {
        "type": "Point",
        "coordinates": [
          30.183806388676757,
          -65.28750795517841
        ]
      }
    },
    {
      "type": "Feature",
      "properties": {
        "norad_id": 33723,
        "name": "FENGYUN 1C DEB",
        "group": "fengyun-1c-debris",
        "lat": 75.63523289822027,
        "lon": -63.187878847622436,
        "alt_km": 907.4395540568748,
        "timestamp": "2025-12-22T23:36:21.000725+00:00",
        "meta_object_name": "FENGYUN 1C DEB",
        "meta_object_id": "1999-025DHL",
        "meta_epoch": "2025-12-20T04:59:52.476864",
        "meta_mean_motion": 14.13346573,
        "meta_eccentricity": 0.00986593,
        "meta_inclination": 99.1535,
        "meta_ra_of_asc_node": 74.9552,
        "meta_arg_of_pericenter": 309.2442,
        "meta_mean_anomaly": 78.1701,
        "meta_ephemeris_type": 0,
        "meta_classification_type": "U",
        "meta_norad_cat_id": 33723,
        "meta_element_set_no": 999,
        "meta_rev_at_epoch": 63729,
        "meta_bstar": 0.001358788,
        "meta_mean_motion_dot": 2.624e-05,
        "meta_mean_motion_ddot": 0,
        "tle_line1": "1 33723U 99025DHL 25354.20824626  .00002624  00000+0  13588-2 0  9992",
        "tle_line2": "2 33723  99.1535  74.9552 0098659 309.2442  78.1701 14.13346573637293"
      },
      "geometry": {
        "type": "Point",
        "coordinates": [
          -63.187878847622436,
          75.63523289822027
        ]
      }
    }
  ]
}